GLOBALSTAR M057         
1 25943U 99058A   25123.63855228 -.00000069  00000+0  21314-3 0  9995
2 25943  51.9960 114.6309 0002686 288.5251  71.5306 12.24818817161475
GLOBALSTAR M059         
1 25944U 99058B   25123.96324203 -.00000009  00000+0  95158-3 0  9997
2 25944  52.0034 326.8139 0000673 135.9817   9.4432 11.99979777568739
GLOBALSTAR M056         
1 25945U 99058C   25123.97331613 -.00000074  00000+0  16129-3 0  9995
2 25945  51.9983 329.8802 0001863  93.8341  51.8638 12.04778742157297
GLOBALSTAR M031         
1 25946U 99058D   25123.79908293 -.00000020  00000+0  71318-3 0  9992
2 25946  51.9956 225.3448 0001724 104.7363  46.4887 12.16034180159142
GLOBALSTAR M039         
1 25961U 99062A   25123.90319882 -.00000065  00000+0  21783-3 0  9997
2 25961  51.9863  43.5949 0002090 252.2968 107.7670 12.62324868174626
GLOBALSTAR M034         
1 25962U 99062B   25124.04298044 -.00000065  00000+0  24946-3 0  9994
2 25962  51.9841 126.1355 0014257 317.2994  76.3919 11.79447817133169
GLOBALSTAR M029         
1 25963U 99062C   25124.18825120 -.00000053  00000+0  41759-3 0  9999
2 25963  51.9798 214.2791 0002291  42.7499 328.2779 11.99895928163897
GLOBALSTAR M061         
1 25964U 99062D   25124.23449157 -.00000023  00000+0  93338-3 0  9995
2 25964  51.9803 309.0918 0005392 236.0385 295.0780 11.76774598116295
